{
    "links": {
        "self": "http://www.neowsapp.com/rest/v1/neo/3825830?api_key=iIulBulltgU6a56xZRHN4H3l9WmuAYTsLGpBGhQ2"
    },
    "id": "3825830",
    "neo_reference_id": "3825830",
    "name": "(2018 OY)",
    "designation": "2018 OY",
    "nasa_jpl_url": "http://ssd.jpl.nasa.gov/sbdb.cgi?sstr=3825830",
    "absolute_magnitude_h": 25.2,
    "estimated_diameter": {
        "kilometers": {
            "estimated_diameter_min": 0.0242412481,
            "estimated_diameter_max": 0.0542050786
        },
        "meters": {
            "estimated_diameter_min": 24.2412481101,
            "estimated_diameter_max": 54.2050786336
        },
        "miles": {
            "estimated_diameter_min": 0.0150628086,
            "estimated_diameter_max": 0.0336814639
        },
        "feet": {
            "estimated_diameter_min": 79.5316564495,
            "estimated_diameter_max": 177.8381901842
        }
    },
    "is_potentially_hazardous_asteroid": false,
    "close_approach_data": [
        {
            "close_approach_date": "2018-07-21",
            "close_approach_date_full": "2018-Jul-21 01:46",
            "epoch_date_close_approach": 1532137560000,
            "relative_velocity": {
                "kilometers_per_second": "10.0529004342",
                "kilometers_per_hour": "36190.4415631229",
                "miles_per_hour": "22487.3329812638"
            },
            "miss_distance": {
                "astronomical": "0.0159769926",
                "lunar": "6.2150501214",
                "kilometers": "2390124.061965762",
                "miles": "1485154.2245890356"
            },
            "orbiting_body": "Earth"
        }
    ],
    "orbital_data": {
        "orbit_id": "5",
        "orbit_determination_date": "2018-08-05 06:22:25",
        "first_observation_date": "2018-07-22",
        "last_observation_date": "2018-08-05",
        "data_arc_in_days": 14,
        "observations_used": 46,
        "orbit_uncertainty": "8",
        "minimum_orbit_intersection": ".0124528",
        "jupiter_tisserand_invariant": "3.510",
        "epoch_osculation": "2458329.5",
        "eccentricity": ".5474357727600687",
        "semi_major_axis": "2.130765917436531",
        "inclination": "4.078524538112672",
        "ascending_node_longitude": "286.4986810697424",
        "orbital_period": "1136.062014643077",
        "perihelion_distance": ".964308430853847",
        "perihelion_argument": "339.4711768138045",
        "aphelion_distance": "3.297223404019216",
        "perihelion_time": "2458295.214519500200",
        "mean_anomaly": "10.86452396157775",
        "mean_motion": ".316884109634722",
        "equinox": "J2000",
        "orbit_class": {
            "orbit_class_type": "APO",
            "orbit_class_description": "Near-Earth asteroid orbits which cross the Earth’s orbit similar to that of 1862 Apollo",
            "orbit_class_range": "a (semi-major axis) > 1.0 AU; q (perihelion) < 1.017 AU"
        }
    },
    "is_sentry_object": false
}